satname,norad_id,inclination_deg,eccentricity,mean_motion_rev_per_day,perigee_km,apogee_km,l1,l2
STARLINK-1234,45190,53.041,0.0006102,15.72229266,348.4201522375497,356.63425483154333,1 45190U 20012N   26144.88849171  .00063659  00000+0  47319-3 0  9992,2 45190  53.0410 309.6712 0006102 183.6141 176.4833 15.72229266347834
STARLINK-1269,45197,53.1583,0.0003005,15.33638361,462.9115755984376,467.02428166054506,1 45197U 20012V   26145.43695479  .00040888  00000+0  12442-2 0  9998,2 45197  53.1583  42.4902 0003005  84.8649 275.2696 15.33638361346673
STARLINK-1154,45198,53.0428,5.61e-05,15.62507424,380.0377448092695,380.79605455681394,1 45198U 20012W   26145.58335648  .00020775  00000+0  23436-3 0  9993,2 45198  53.0428 359.6160 0000561  94.6005  83.4312 15.62507424  5874
STARLINK-1199,45201,53.1585,0.000239,15.3360693,463.4259026945474,466.69695154271085,1 45201U 20012Z   26145.40771760  .00041846  00000+0  12742-2 0  9997,2 45201  53.1585  26.8919 0002390 140.5376 219.5800 15.33606930346910
STARLINK-1209,45206,53.0404,0.0008997,15.64119331,369.69624635899163,381.8492315432595,1 45206U 20012AE  26145.21128002  .00101858  00000+0  10449-2 0  9998,2 45206  53.0404 321.8466 0008997 177.8159 182.2896 15.64119331346841
STARLINK-1231,45212,53.0399,0.0003721,15.26813428,482.791546886775,487.8993505251019,1 45212U 20012AL  26145.06875465  .00033998  00000+0  12802-2 0  9994,2 45212  53.0399  23.2614 0003721  60.7175 299.4194 15.26813428346878
STARLINK-1271,45217,53.159,0.0002108,15.33735566,463.2363254128368,466.1212565503147,1 45217U 20012AR  26145.40688992  .00040898  00000+0  12407-2 0  9992,2 45217  53.1590  27.0353 0002108 126.4597 233.6600 15.33735566346916
STARLINK-1191,45222,53.1545,0.0002318,15.37566848,451.7233310209531,454.89038839431305,1 45222U 20012AW  26145.61622379  .00064331  00000+0  17157-2 0  9993,2 45222  53.1545 359.4240 0002318 139.9131 220.2045 15.37566848347325
STARLINK-1212,45223,53.041,0.0003411,15.65557508,369.3335028703459,373.9381979088812,1 45223U 20012AX  26145.62350781  .00048659  00000+0  47815-3 0  9990,2 45223  53.0410 335.5562 0003411 107.5412 252.5975 15.65557508347645
STARLINK-1215,45225,53.1582,0.0002132,15.33798147,463.03381042863293,465.95150771526005,1 45225U 20012AZ  26145.01591675  .00038965  00000+0  11806-2 0  9993,2 45225  53.1582   3.1385 0002132 167.4587 192.6469 15.33798147347177
STARLINK-1221,45227,53.065,0.0001756,15.44340485,432.1205247902326,434.5127073001877,1 45227U 20012BB  26145.33056661  .00016259  00000+0  35540-3 0  9995,2 45227  53.0650 265.7136 0001756 241.8634 118.2194 15.44340485348546
STARLINK-1222,45228,53.054,9.24e-05,15.54100371,404.1422607649283,405.3957417939646,1 45228U 20012BC  26145.51588354  .00025970  00000+0  39914-3 0  9994,2 45228  53.0540 333.1579 0000924  43.8470 316.2613 15.54100371347555
STARLINK-1226,45229,53.1587,0.0002689,15.42311065,437.4572459779174,441.1236584617218,1 45229U 20012BD  26145.31714582  .00052272  00000+0  11963-2 0  9995,2 45229  53.1587 358.6136 0002689 158.5721 201.5398 15.42311065347201
STARLINK-1227,45230,53.1576,0.0003536,15.42423806,436.5477173278632,441.3687670831496,1 45230U 20012BE  26145.32798254  .00049409  00000+0  11274-2 0  9999,2 45230  53.1576 358.6819 0003536 155.4580 204.6595 15.42423806347323
STARLINK-1246,45235,53.1569,0.0003053,15.33725466,462.6197113200842,466.7979529851955,1 45235U 20012BK  26145.11796865  .00037731  00000+0  11463-2 0  9992,2 45235  53.1569  43.6109 0003053 132.5155 227.6106 15.33725466346689
STARLINK-1270,45237,53.0422,0.0002436,15.59549769,387.3107114555187,390.6076407125065,1 45237U 20012BM  26145.52872568  .00086673  00000+0  10659-2 0  9999,2 45237  53.0422 336.8886 0002436 142.6618 217.4564 15.59549769347614
STARLINK-1279,45360,53.0357,0.000878,15.72382251,346.1814830895155,357.9997627954017,1 45360U 20019A   26145.12095983  .00071345  00000+0  52530-3 0  9992,2 45360  53.0357  83.3079 0008780  65.8479 294.3456 15.72382251342643
STARLINK-1301,45361,53.0369,0.0006167,15.74669358,341.42571477942147,349.7187377390892,1 45361U 20019B   26145.11897194  .00079851  00000+0  53262-3 0  9999,2 45361  53.0369  86.1857 0006167  85.9818 274.1905 15.74669358342619
STARLINK-1262,45366,53.154,0.000391,15.32690663,465.11171426256533,470.4652279809825,1 45366U 20019G   26145.47102735  .00031851  00000+0  10022-2 0  9997,2 45366  53.1540 168.3240 0003910  26.9342 333.1862 15.32690663341518
STARLINK-1273,45367,53.0438,0.0006488,15.55104124,397.4511150946955,406.24882618779975,1 45367U 20019H   26145.39745840  .00071533  00000+0  10409-2 0  9999,2 45367  53.0438 146.7552 0006488  11.2465 348.8689 15.55104124341793
STARLINK-1277,45369,53.0437,0.0006678,15.61509576,378.78057738522875,387.81114711605005,1 45369U 20019K   26145.28022986  .00088951  00000+0  10136-2 0  9997,2 45369  53.0437 142.0133 0006678   1.2685 358.8343 15.61509576341854
STARLINK-1281,45370,53.1559,0.0004947,15.33594362,461.71346556201024,468.48416307669686,1 45370U 20019L   26145.49071878  .00030792  00000+0  94215-3 0  9997,2 45370  53.1559 167.9436 0004947  26.2147 333.9105 15.33594362341521
STARLINK-1300,45374,53.158,0.0004752,15.33997683,460.6479368140108,467.1506080873478,1 45374U 20019Q   26145.44153568  .00030475  00000+0  92084-3 0  9993,2 45374  53.1580 168.1199 0004752  39.4035 320.7313 15.33997683341511
STARLINK-1302,45375,53.0454,0.000552,15.65675954,367.5697383414972,375.02111173874164,1 45375U 20019R   26145.24306333  .00045034  00000+0  44085-3 0  9997,2 45375  53.0454 138.6237 0005520  27.1332 332.9970 15.65675954341898
STARLINK-1304,45376,53.0418,0.0006174,15.60808819,381.1437417282805,389.49525781419834,1 45376U 20019S   26145.26755602  .00087394  00000+0  10235-2 0  9991,2 45376  53.0418 139.3563 0006174  27.0698 333.0635 15.60808819341881
STARLINK-1305,45377,53.0378,0.000163,15.6953303,359.13486405687127,361.33157274806945,1 45377U 20019T   26145.10537752  .00053593  00000+0  44756-3 0  9999,2 45377  53.0378 119.5656 0001630 130.0832 230.0328 15.69533030342152
STARLINK-1319,45379,53.0385,0.000487,15.7480788,341.90368239063355,348.45219113904204,1 45379U 20019V   26145.37604234  .00078516  00000+0  52094-3 0  9996,2 45379  53.0385 110.4836 0004870  48.7374 311.4064 15.74807880342308
STARLINK-1266,45383,53.043,0.0001647,15.62322339,379.83744839556675,382.0638918741097,1 45383U 20019Z   26145.58335648  .01188132  00000+0  11861-1 0  9996,2 45383  53.0430 123.0779 0001647  86.3635   2.3824 15.62322339  5930
STARLINK-1267,45384,53.0435,0.0007556,15.63289187,373.0584586040459,383.26857994877537,1 45384U 20019AA  26145.33902169  .00079268  00000+0  84423-3 0  9992,2 45384  53.0435 115.4483 0007556  60.2930 299.8835 15.63289187342222
STARLINK-1272,45386,53.0398,0.0008509,15.67905164,359.1588067400544,370.6341010719116,1 45386U 20019AC  26145.14270883  .00058970  00000+0  52469-3 0  9996,2 45386  53.0398  95.6293 0008509  49.6468 310.5289 15.67905164342482
STARLINK-1274,45387,53.0208,0.000898,15.59021124,384.41062334231447,396.56707536775684,1 45387U 20019AD  26145.28819817  .00086504  00000+0  10836-2 0  9993,2 45387  53.0208  93.3241 0008980  76.9224 283.2789 15.59021124342529
STARLINK-1280,45388,53.037,0.0005797,15.75496452,339.3224705713974,347.1152105329338,1 45388U 20019AE  26145.13890905  .00079788  00000+0  51348-3 0  9995,2 45388  53.0370 104.1079 0005797  57.6943 302.4637 15.75496452342352
STARLINK-1283,45389,53.0393,0.0004373,15.69187858,358.27421385998696,364.16845666000427,1 45389U 20019AF  26145.55416517  .00057783  00000+0  48866-3 0  9997,2 45389  53.0393  92.8192 0004373  75.6156 284.5346 15.69187858342562
STARLINK-1284,45390,53.0402,0.0005191,15.68101068,360.83481705325175,367.83485131149973,1 45390U 20019AG  26145.11567627  .00048907  00000+0  43358-3 0  9999,2 45390  53.0402 118.7505 0005191   6.6310 353.4773 15.68101068342159
STARLINK-1297,45395,53.0409,0.0006923,15.66547607,364.12063028864304,373.46242752977105,1 45395U 20019AM  26145.43509569  .00051373  00000+0  48434-3 0  9991,2 45395  53.0409 116.0470 0006923  16.0377 344.0856 15.66547607341401
STARLINK-1307,45397,53.0521,0.0002729,15.55511591,398.81596975901175,402.51584038459987,1 45397U 20019AP  26145.32681384  .00035205  00000+0  51086-3 0  9990,2 45397  53.0521 121.3481 0002729  51.2514 308.8740 15.55511591341965
STARLINK-1255,45399,53.0347,0.0006027,15.64121165,371.6968812307123,379.83803766613073,1 45399U 20019AR  26145.25222137  .00096840  00000+0  99530-3 0  9999,2 45399  53.0347  90.4888 0006027  69.1109 291.0549 15.64121165342373
STARLINK-1260,45404,53.1558,0.0006012,15.36236656,453.140316435135,461.3591854644774,1 45404U 20019AW  26145.23272674  .00044244  00000+0  12377-2 0  9999,2 45404  53.1558 132.1305 0006012  37.0683 323.0734 15.36236656341718
STARLINK-1263,45405,53.1565,0.0004539,15.33653836,461.8158315459641,468.02796041173315,1 45405U 20019AX  26145.37442324  .00034733  00000+0  10588-2 0  9990,2 45405  53.1565 132.4636 0004539  51.8580 308.2830 15.33653836341722
STARLINK-1265,45406,53.1559,0.0005528,15.36614893,452.35003850045086,459.9060019067874,1 45406U 20019AY  26145.22857027  .00046339  00000+0  12799-2 0  9996,2 45406  53.1559 132.1770 0005528  29.0666 331.0644 15.36614893341712
STARLINK-1278,45408,53.0393,0.000771,15.67457441,360.98056153265406,371.38029901013215,1 45408U 20019BA  26145.21438339  .00083979  00000+0  75670-3 0  9997,2 45408  53.0393 116.1573 0007710  33.8003 326.3502 15.67457441341926
STARLINK-1296,45412,53.1554,0.0006378,15.36847023,451.08136894078234,459.79827953778295,1 45412U 20019BE  26145.33512462  .00044826  00000+0  12293-2 0  9994,2 45412  53.1554 131.3881 0006378  29.0956 331.0402 15.36847023341731
STARLINK-1309,45414,53.0603,0.0006863,15.66620408,363.9522334171843,373.2127806125118,1 45414U 20019BG  26145.29057659  .00050613  00000+0  47591-3 0  9994,2 45414  53.0603 109.6046 0006863  14.4850 345.6361 15.66620408342003
